NORAD_CAT_ID,OBJECT_NAME,OBJECT_TYPE,EPOCH,MEAN_MOTION,ECCENTRICITY,INCLINATION,RA_OF_ASC_NODE,ARG_OF_PERICENTER,MEAN_ANOMALY,BSTAR,MEAN_MOTION_DOT,MEAN_MOTION_DDOT,TLE_LINE0,TLE_LINE1,TLE_LINE2,SEMIMAJOR_AXIS,PERIOD,APOGEE,PERIGEE,DECAYED
56472.0,STARLINK-5038,PAYLOAD,2023-07-08 20:15:51,15.69919241,0.000375,69.999,79.0847,266.0936,93.9831,-5.8496e-06,-9.16e-06,0.0,0 STARLINK-5038,1 56472U 23064AA  23189.84434587 -.00000916  00000-0 -58496-5 0  9990,2 56472  69.9990  79.0847 0003750 266.0936  93.9831 15.69919241  9650,6737.265,91.724,361.657,356.604,0.0
56472.0,STARLINK-5038,PAYLOAD,2023-07-10 02:50:53,15.69933608,0.0003549,69.9992,75.5026,259.1784,100.9012,1.8943e-05,2.066e-05,0.0,0 STARLINK-5038,1 56472U 23064AA  23191.11867531  .00002066  00000-0  18943-4 0  9990,2 56472  69.9992  75.5026 0003549 259.1784 100.9012 15.69933608  9857,6737.224,91.724,361.48,356.698,0.0
56472.0,STARLINK-5038,PAYLOAD,2023-07-11 01:47:10,15.69928561,0.0003569,69.9996,72.8155,265.7353,94.3435,2.6436e-05,2.968e-05,0.0,0 STARLINK-5038,1 56472U 23064AA  23192.07442793  .00002968  00000-0  26436-4 0  9992,2 56472  69.9996  72.8155 0003569 265.7353  94.3435 15.69928561 10007,6737.238,91.724,361.508,356.699,0.0
56472.0,STARLINK-5038,PAYLOAD,2023-07-11 17:04:41,15.69924218,0.0003644,69.9981,71.0213,266.0441,94.0338,1.0842e-05,1.091e-05,0.0,0 STARLINK-5038,1 56472U 23064AA  23192.71159630  .00001091  00000-0  10842-4 0  9998,2 56472  69.9981  71.0213 0003644 266.0441  94.0338 15.69924218 10108,6737.251,91.724,361.571,356.661,0.0
56472.0,STARLINK-5038,PAYLOAD,2023-07-12 19:04:29,15.69921479,0.000326,70.0002,67.9773,268.1476,91.9347,1.2112e-05,1.244e-05,0.0,0 STARLINK-5038,1 56472U 23064AA  23193.79478296  .00001244  00000-0  12112-4 0  9991,2 56472  70.0002  67.9773 0003260 268.1476  91.9347 15.69921479 10275,6737.259,91.724,361.32,356.927,0.0
56472.0,STARLINK-5038,PAYLOAD,2023-07-14 16:57:02,15.69927712,0.0003486,69.9995,62.6026,274.011,86.0687,1.6105e-05,1.724e-05,0.0,0 STARLINK-5038,1 56472U 23064AA  23195.70628309  .00001724  00000-0  16105-4 0  9995,2 56472  69.9995  62.6026 0003486 274.0110  86.0687 15.69927712 10578,6737.241,91.724,361.454,356.757,0.0
56472.0,STARLINK-5038,PAYLOAD,2023-07-15 00:35:49,15.69911982,0.0003024,69.9999,61.7078,272.0516,88.0333,-1.4528e-05,-1.958e-05,0.0,0 STARLINK-5038,1 56472U 23064AA  23196.02487480 -.00001958  00000-0 -14528-4 0  9992,2 56472  69.9999  61.7078 0003024 272.0516  88.0333 15.69911982 10623,6737.286,91.725,361.188,357.113,0.0
56472.0,STARLINK-5038,PAYLOAD,2023-07-15 17:25:05,15.69923136,0.0003383,69.9995,59.7366,269.8347,90.2461,-4.1612e-06,-7.13e-06,0.0,0 STARLINK-5038,1 56472U 23064AA  23196.72575312 -.00000713  00000-0 -41612-5 0  9994,2 56472  69.9995  59.7366 0003383 269.8347  90.2461 15.69923136 10733,6737.254,91.724,361.398,356.84,0.0
56472.0,STARLINK-5038,PAYLOAD,2023-07-16 16:21:21,15.6993239,0.0004071,69.9978,57.0481,271.4009,88.6721,4.0321e-06,2.72e-06,0.0,0 STARLINK-5038,1 56472U 23064AA  23197.68149787  .00000272  00000-0  40321-5 0  9997,2 56472  69.9978  57.0481 0004071 271.4009  88.6721 15.69932390 10880,6737.227,91.724,361.835,356.35,0.0
56472.0,STARLINK-5038,PAYLOAD,2023-07-17 18:21:08,15.69927041,0.0003581,69.9991,54.0033,270.9496,89.129,2.2462e-05,2.489e-05,0.0,0 STARLINK-5038,1 56472U 23064AA  23198.76468486  .00002489  00000-0  22462-4 0  9994,2 56472  69.9991  54.0033 0003581 270.9496  89.1290 15.69927041 11058,6737.243,91.724,361.52,356.695,0.0
56472.0,STARLINK-5038,PAYLOAD,2023-07-19 17:45:27,15.69934809,0.000356,69.9964,48.4489,265.0305,95.0484,2.4463e-05,2.731e-05,0.0,0 STARLINK-5038,1 56472U 23064AA  23200.73989833  .00002731  00000-0  24463-4 0  9992,2 56472  69.9964  48.4489 0003560 265.0305  95.0484 15.69934809 11366,6737.221,91.724,361.484,356.687,0.0
56472.0,STARLINK-5038,PAYLOAD,2023-07-20 16:41:44,15.69918285,0.0003242,69.9977,45.7609,265.8272,94.2553,2.2878e-05,2.538e-05,0.0,0 STARLINK-5038,1 56472U 23064AA  23201.69565642  .00002538  00000-0  22878-4 0  9999,2 56472  69.9977  45.7609 0003242 265.8272  94.2553 15.69918285 11517,6737.268,91.725,361.317,356.949,0.0
56472.0,STARLINK-5038,PAYLOAD,2023-07-21 17:09:46,15.69928283,0.0003154,69.9979,42.8956,266.522,93.5615,1.6703e-06,-1.2e-07,0.0,0 STARLINK-5038,1 56472U 23064AA  23202.71512551 -.00000012  00000-0  16703-5 0  9991,2 56472  69.9979  42.8956 0003154 266.5220  93.5615 15.69928283 11672,6737.239,91.724,361.229,356.979,0.0
56472.0,STARLINK-5038,PAYLOAD,2023-07-24 12:26:52,15.69928005,0.0003176,70.0005,35.0146,269.5211,90.5621,8.219e-06,7.76e-06,0.0,0 STARLINK-5038,1 56472U 23064AA  23205.51866047  .00000776  00000-0  82190-5 0  9993,2 56472  70.0005  35.0146 0003176 269.5211  90.5621 15.69928005 11763,6737.24,91.724,361.245,356.965,0.0
56472.0,STARLINK-5038,PAYLOAD,2023-07-25 11:23:09,15.69919659,0.0003202,69.9979,32.3233,280.583,79.5005,2.9216e-05,3.301e-05,0.0,0 STARLINK-5038,1 56472U 23064AA  23206.47441597  .00003301  00000-0  29216-4 0  9994,2 56472  69.9979  32.3233 0003202 280.5830  79.5005 15.69919659 11912,6737.264,91.724,361.286,356.972,0.0
56472.0,STARLINK-5038,PAYLOAD,2023-07-26 11:51:11,15.69922304,0.0004181,69.9961,29.4595,267.7875,92.2842,1.1295e-05,1.145e-05,0.0,0 STARLINK-5038,1 56472U 23064AA  23207.49388035  .00001145  00000-0  11295-4 0  9996,2 56472  69.9961  29.4595 0004181 267.7875  92.2842 15.69922304 12074,6737.256,91.724,361.938,356.304,0.0
56472.0,STARLINK-5038,PAYLOAD,2023-07-26 14:54:40,15.69931709,0.0003952,69.9962,29.1015,271.5704,88.5039,1.8503e-05,2.013e-05,0.0,0 STARLINK-5038,1 56472U 23064AA  23207.62130779  .00002013  00000-0  18503-4 0  9995,2 56472  69.9962  29.1015 0003952 271.5704  88.5039 15.69931709 12444,6737.229,91.724,361.757,356.432,0.0
56472.0,STARLINK-5038,PAYLOAD,2023-07-27 18:26:14,15.69917805,0.0004345,69.9976,25.8775,274.9886,85.0814,5.9568e-06,5.03e-06,0.0,0 STARLINK-5038,1 56472U 23064AA  23208.76822045  .00000503  00000-0  59568-5 0  9994,2 56472  69.9976  25.8775 0004345 274.9886  85.0814 15.69917805 12624,6737.269,91.725,362.062,356.207,0.0
56472.0,STARLINK-5038,PAYLOAD,2023-07-27 21:29:44,15.69925167,0.0003345,69.9974,25.5163,266.7655,93.3158,7.9739e-06,7.46e-06,0.0,0 STARLINK-5038,1 56472U 23064AA  23208.89564926  .00000746  00000-0  79739-5 0  9990,2 56472  69.9974  25.5163 0003345 266.7655  93.3158 15.69925167 12298,6737.248,91.724,361.367,356.859,0.0
56472.0,STARLINK-5038,PAYLOAD,2023-07-28 05:08:30,15.69914222,0.0003756,69.9967,24.6214,267.1786,92.898,1.0123e-05,1.004e-05,0.0,0 STARLINK-5038,1 56472U 23064AA  23209.21423866  .00001004  00000-0  10123-4 0  9993,2 56472  69.9967  24.6214 0003756 267.1786  92.8980 15.69914222 12694,6737.279,91.725,361.675,356.614,0.0
56472.0,STARLINK-5038,PAYLOAD,2023-07-28 15:50:45,15.69933567,0.0003849,69.9972,23.3678,270.8106,89.2649,1.1326e-05,1.15e-05,0.0,0 STARLINK-5038,1 56472U 23064AA  23209.66024306  .00001150  00000-0  11326-4 0  9996,2 56472  69.9972  23.3678 0003849 270.8106  89.2649 15.69933567 12763,6737.224,91.724,361.682,356.496,0.0
56472.0,STARLINK-5038,PAYLOAD,2023-07-29 19:22:17,15.69922608,0.0003566,69.9976,20.1429,271.5375,88.5413,1.1575e-05,1.179e-05,0.0,0 STARLINK-5038,1 56472U 23064AA  23210.80715119  .00001179  00000-0  11575-4 0  9990,2 56472  69.9976  20.1429 0003566 271.5375  88.5413 15.69922608 12943,6737.255,91.724,361.523,356.718,0.0
56472.0,STARLINK-5038,PAYLOAD,2023-07-29 23:57:33,15.69903686,0.0004354,69.9975,19.6058,273.2476,86.8221,5.0621e-05,5.874e-05,0.0,0 STARLINK-5038,1 56472U 23064AA  23210.99830630  .00005874  00000-0  50621-4 0  9997,2 56472  69.9975  19.6058 0004354 273.2476  86.8221 15.69903686 12976,6737.31,91.725,362.108,356.241,0.0
56472.0,STARLINK-5038,PAYLOAD,2023-07-30 13:43:19,15.69927365,0.0003484,69.9986,17.9946,276.0773,84.0025,3.603e-06,2.2e-06,0.0,0 STARLINK-5038,1 56472U 23064AA  23211.57175164  .00000220  00000-0  36030-5 0  9995,2 56472  69.9986  17.9946 0003484 276.0773  84.0025 15.69927365 13062,6737.242,91.724,361.454,356.76,0.0
56472.0,STARLINK-5038,PAYLOAD,2023-07-30 21:22:05,15.69919045,0.0003548,69.9975,17.0979,274.1402,85.9388,-2.2547e-06,-4.84e-06,0.0,0 STARLINK-5038,1 56472U 23064AA  23211.89033859 -.00000484  00000-0 -22547-5 0  9996,2 56472  69.9975  17.0979 0003548 274.1402  85.9388 15.69919045 13110,6737.266,91.724,361.521,356.74,0.0
56472.0,STARLINK-5038,PAYLOAD,2023-07-31 18:46:36,15.69926322,0.0003297,69.9979,14.5902,274.0323,86.0496,1.3438e-05,1.403e-05,0.0,0 STARLINK-5038,1 56472U 23064AA  23212.78236796  .00001403  00000-0  13438-4 0  9998,2 56472  69.9979  14.5902 0003297 274.0323  86.0496 15.69926322 13257,6737.245,91.724,361.331,356.889,0.0
56472.0,STARLINK-5038,PAYLOAD,2023-08-01 14:39:23,15.69923835,0.0003465,69.9986,12.2615,268.1433,91.9366,4.4275e-07,-1.6e-06,0.0,0 STARLINK-5038,1 56472U 23064AA  23213.61069134 -.00000160  00000-0  44275-6 0  9996,2 56472  69.9986  12.2615 0003465 268.1433  91.9366 15.69923835 13385,6737.252,91.724,361.451,356.782,0.0
56472.0,STARLINK-5038,PAYLOAD,2023-08-01 20:46:23,15.69931778,0.0003542,69.9981,11.5439,270.4073,89.6717,9.0828e-06,8.8e-06,0.0,0 STARLINK-5038,1 56472U 23064AA  23213.86555134  .00000880  00000-0  90828-5 0  9995,2 56472  69.9981  11.5439 0003542 270.4073  89.6717 15.69931778 13422,6737.229,91.724,361.481,356.708,0.0
56472.0,STARLINK-5038,PAYLOAD,2023-08-02 18:10:55,15.6992848,0.0003517,69.9977,9.0356,272.558,87.5212,9.3918e-06,9.17e-06,0.0,0 STARLINK-5038,1 56472U 23064AA  23214.75758678  .00000917  00000-0  93918-5 0  9996,2 56472  69.9977   9.0356 0003517 272.5580  87.5212 15.69928480 13563,6737.239,91.724,361.473,356.734,0.0
56472.0,STARLINK-5038,PAYLOAD,2023-08-02 22:46:10,15.69935529,0.0003471,69.998,8.4983,273.2957,86.7842,1.6798e-05,1.808e-05,0.0,0 STARLINK-5038,1 56472U 23064AA  23214.94873145  .00001808  00000-0  16798-4 0  9994,2 56472  69.9980   8.4983 0003471 273.2957  86.7842 15.69935529 13596,6737.218,91.724,361.422,356.745,0.0
